OBJECT_NAME,OBJECT_ID,EPOCH,MEAN_MOTION,ECCENTRICITY,INCLINATION,RA_OF_ASC_NODE,ARG_OF_PERICENTER,MEAN_ANOMALY,EPHEMERIS_TYPE,CLASSIFICATION_TYPE,NORAD_CAT_ID,ELEMENT_SET_NO,REV_AT_EPOCH,BSTAR,MEAN_MOTION_DOT,MEAN_MOTION_DDOT
STARLINK-38087,2026-150E,2026-07-23T11:00:44.539776,15.75245536,.00011086,97.2850,43.2512,32.6719,327.4615,0,U,69743,999,462,.13061768E-2,.1998E-2,0
STARLINK-38078,2026-150F,2026-07-23T14:00:01.000224,15.75408479,.00013356,97.2844,43.4389,79.6468,29.9252,0,U,69744,999,464,-.288127E-2,-.413664E-2,0
STARLINK-38047,2026-150G,2026-07-23T11:08:52.225440,15.75243455,.00013359,97.2839,43.2451,78.3371,281.8044,0,U,69745,999,462,.11993777E-2,.183074E-2,0
STARLINK-38046,2026-150H,2026-07-23T12:16:27.977952,15.75291836,.00020237,97.2859,43.3353,109.3421,250.8063,0,U,69746,999,463,.15923235E-2,.24541E-2,0
STARLINK-38067,2026-150J,2026-07-23T11:26:39.430464,15.75260331,.0001719,97.2841,43.2279,105.4067,254.7388,0,U,69747,999,462,.156764E-2,.241151E-2,0
STARLINK-37988,2026-150K,2026-07-23T02:15:14.380416,15.75187504,.00015149,97.2841,42.8299,62.2854,297.8564,0,U,69748,999,456,.14391003E-2,.220123E-2,0
STARLINK-37987,2026-150L,2026-07-23T11:18:01.248192,15.75249940,.00018324,97.2835,43.2366,51.7168,308.4262,0,U,69749,999,462,.13295665E-2,.203511E-2,0
STARLINK-38037,2026-150M,2026-07-23T14:00:01.000224,15.75212759,.00014789,97.2840,43.4299,86.5988,1.0135,0,U,69750,999,464,-.15676271E-3,-.23471E-3,0
STARLINK-38049,2026-150N,2026-07-23T11:46:16.963104,15.80917653,.00011579,97.2851,43.3642,104.8113,255.3284,0,U,69751,999,463,.13165491E-2,.260937E-2,0
STARLINK-38029,2026-150P,2026-07-23T10:54:08.167680,15.75274901,.00019869,97.2830,43.2590,100.0179,260.1310,0,U,69752,999,462,.17175419E-2,.265141E-2,0
STARLINK-37965,2026-150Q,2026-07-23T11:03:45.933984,15.75262442,.00010019,97.2836,43.2487,82.7735,277.3644,0,U,69753,999,462,.14300004E-2,.219421E-2,0
STARLINK-38048,2026-150R,2026-07-23T02:30:32.459040,15.80905064,.00010304,97.2862,42.9698,56.6178,303.5189,0,U,69754,999,457,.14526759E-2,.288696E-2,0
STARLINK-38006,2026-150S,2026-07-23T03:13:10.529760,15.75224518,.00010193,97.2845,42.9300,96.8677,263.2704,0,U,69755,999,457,.59204697E-3,.89237E-3,0
STARLINK-38036,2026-150T,2026-07-23T12:12:24.175296,15.75282261,.00015092,97.2839,43.3412,99.3883,260.7553,0,U,69756,999,463,.16190752E-2,.24955E-2,0
STARLINK-38058,2026-150U,2026-07-23T11:57:39.767616,15.75284274,.00016498,97.2848,43.3546,113.5955,246.5483,0,U,69757,999,463,.20288161E-2,.315205E-2,0
STARLINK-38066,2026-150V,2026-07-23T14:00:01.000224,15.75213832,.00013747,97.2844,43.4557,95.8057,49.8066,0,U,69758,999,464,-.29756364E-3,-.44329E-3,0
STARLINK-38035,2026-150W,2026-07-23T14:00:01.000224,15.75317848,.00015134,97.2847,43.4783,85.7536,113.8441,0,U,69759,999,464,-.18132635E-2,-.263883E-2,0
STARLINK-38056,2026-150X,2026-07-23T06:52:22.749888,15.80921132,.00016827,97.2847,43.1836,70.6505,289.4945,0,U,69760,999,460,.16227696E-2,.324076E-2,0
STARLINK-38069,2026-150Y,2026-07-23T11:48:31.088736,15.75286718,.00029972,97.2846,43.3628,83.3222,276.8384,0,U,69761,999,463,.1311163E-2,.200971E-2,0
STARLINK-38019,2026-150Z,2026-07-23T01:40:41.126880,15.75230661,.00012636,97.2839,42.8642,101.9657,258.1750,0,U,69762,999,456,.1219438E-2,.186102E-2,0
KUIPER-00258,2026-151A,2026-07-23T05:03:42.350976,15.34365580,.00105021,51.8682,141.9437,194.7814,165.2865,0,U,69763,999,324,.26075399E-3,.845E-4,0
KUIPER-00526,2026-151B,2026-07-23T14:00:01.000224,15.32483190,.00052856,51.8775,139.8815,174.4072,219.3882,0,U,69764,999,343,-.47347371E-1,-.1372874E-1,0
KUIPER-00558,2026-151C,2026-07-23T14:00:01.000224,15.26528494,.00070122,51.8811,140.2097,181.7007,48.4070,0,U,69765,999,391,-.50166529E-1,-.1222622E-1,0
KUIPER-00569,2026-151D,2026-07-23T01:12:27.814752,15.37626848,.00055983,51.8779,142.3888,166.4759,193.6379,0,U,69766,999,322,.10085773E-2,.37646E-3,0
KUIPER-00589,2026-151E,2026-07-23T14:00:01.000224,15.32110273,.00049026,51.8761,139.8828,175.7050,209.1759,0,U,69767,999,394,-.51753369E-1,-.1472439E-1,0
KUIPER-00598,2026-151F,2026-07-23T14:00:01.000224,15.34222784,.00086652,51.8648,140.1601,191.4070,59.7713,0,U,69768,999,384,.48418997E-3,.15955E-3,0
KUIPER-00604,2026-151G,2026-07-23T02:31:29.053632,15.38119408,.0002639,51.8797,142.0067,125.8861,234.2372,0,U,69769,999,323,-.15640177E-2,-.59555E-3,0
KUIPER-00609,2026-151H,2026-07-23T10:10:58.501344,15.38809442,.00011122,51.8802,140.3956,69.8751,290.2356,0,U,69770,999,328,.70316935E-3,.27115E-3,0
KUIPER-00611,2026-151J,2026-07-23T13:21:55.724544,15.38628893,.00015266,51.8815,139.7806,143.5876,216.5215,0,U,69771,999,330,.74925403E-3,.28753E-3,0
KUIPER-00612,2026-151K,2026-07-23T02:37:09.455808,15.38098923,.00036934,51.8790,142.0331,144.3185,215.8050,0,U,69772,999,323,.72610333E-3,.27369E-3,0
