STARLINK-38087          
1 69743U 26150E   26204.45884884  .00199800  00000+0  13062-2 0  9996
2 69743  97.2850  43.2512 0001108  32.6719 327.4615 15.75245536  4620
STARLINK-38078          
1 69744U 26150F   26204.58334491 -.00413664  00000+0 -28813-2 0  9994
2 69744  97.2844  43.4389 0001335  79.6468  29.9252 15.75408479  4642
STARLINK-38047          
1 69745U 26150G   26204.46449335  .00183074  00000+0  11994-2 0  9995
2 69745  97.2839  43.2451 0001335  78.3371 281.8044 15.75243455  4621
STARLINK-38046          
1 69746U 26150H   26204.51143493  .00245410  00000+0  15923-2 0  9997
2 69746  97.2859  43.3353 0002023 109.3421 250.8063 15.75291836  4636
STARLINK-38067          
1 69747U 26150J   26204.47684526  .00241151  00000+0  15676-2 0  9993
2 69747  97.2841  43.2279 0001719 105.4067 254.7388 15.75260331  4626
STARLINK-37988          
1 69748U 26150K   26204.09391644  .00220123  00000+0  14391-2 0  9997
2 69748  97.2841  42.8299 0001514  62.2854 297.8564 15.75187504  4568
STARLINK-37987          
1 69749U 26150L   26204.47084778  .00203511  00000+0  13296-2 0  9992
2 69749  97.2835  43.2366 0001832  51.7168 308.4262 15.75249940  4620
STARLINK-38037          
1 69750U 26150M   26204.58334491 -.00023471  00000+0 -15676-3 0  9998
2 69750  97.2840  43.4299 0001478  86.5988   1.0135 15.75212759  4642
STARLINK-38049          
1 69751U 26150N   26204.49047411  .00260937  00000+0  13165-2 0  9990
2 69751  97.2851  43.3642 0001157 104.8113 255.3284 15.80917653  4633
STARLINK-38029          
1 69752U 26150P   26204.45426120  .00265141  00000+0  17175-2 0  9992
2 69752  97.2830  43.2590 0001986 100.0179 260.1310 15.75274901  4621
STARLINK-37965          
1 69753U 26150Q   26204.46094831  .00219421  00000+0  14300-2 0  9991
2 69753  97.2836  43.2487 0001001  82.7735 277.3644 15.75262442  4622
STARLINK-38048          
1 69754U 26150R   26204.10454235  .00288696  00000+0  14527-2 0  9992
2 69754  97.2862  42.9698 0001030  56.6178 303.5189 15.80905064  4575
STARLINK-38006          
1 69755U 26150S   26204.13414965  .00089237  00000+0  59205-3 0  9995
2 69755  97.2845  42.9300 0001019  96.8677 263.2704 15.75224518  4571
STARLINK-38036          
1 69756U 26150T   26204.50861314  .00249550  00000+0  16191-2 0  9993
2 69756  97.2839  43.3412 0001509  99.3883 260.7553 15.75282261  4635
STARLINK-38058          
1 69757U 26150U   26204.49837694  .00315205  00000+0  20288-2 0  9999
2 69757  97.2848  43.3546 0001649 113.5955 246.5483 15.75284274  4638
STARLINK-38066          
1 69758U 26150V   26204.58334491 -.00044329  00000+0 -29756-3 0  9995
2 69758  97.2844  43.4557 0001374  95.8057  49.8066 15.75213832  4642
STARLINK-38035          
1 69759U 26150W   26204.58334491 -.00263883  00000+0 -18133-2 0  9990
2 69759  97.2847  43.4783 0001513  85.7536 113.8441 15.75317848  4643
STARLINK-38056          
1 69760U 26150X   26204.28637442  .00324076  00000+0  16228-2 0  9994
2 69760  97.2847  43.1836 0001682  70.6505 289.4945 15.80921132  4605
STARLINK-38069          
1 69761U 26150Y   26204.49202649  .00200971  00000+0  13112-2 0  9991
2 69761  97.2846  43.3628 0002997  83.3222 276.8384 15.75286718  4631
STARLINK-38019          
1 69762U 26150Z   26204.06992045  .00186102  00000+0  12194-2 0  9999
2 69762  97.2839  42.8642 0001263 101.9657 258.1750 15.75230661  4566
KUIPER-00258            
1 69763U 26151A   26204.21090684  .00008450  00000+0  26075-3 0  9999
2 69763  51.8682 141.9437 0010502 194.7814 165.2865 15.34365580  3246
KUIPER-00526            
1 69764U 26151B   26204.58334491 -.01372874  00000+0 -47347-1 0  9997
2 69764  51.8775 139.8815 0005285 174.4072 219.3882 15.32483190  3436
KUIPER-00558            
1 69765U 26151C   26204.58334491 -.01222622  00000+0 -50167-1 0  9997
2 69765  51.8811 140.2097 0007012 181.7007  48.4070 15.26528494  3918
KUIPER-00569            
1 69766U 26151D   26204.05032193  .00037646  00000+0  10086-2 0  9998
2 69766  51.8779 142.3888 0005598 166.4759 193.6379 15.37626848  3227
KUIPER-00589            
1 69767U 26151E   26204.58334491 -.01472439  00000+0 -51753-1 0  9994
2 69767  51.8761 139.8828 0004902 175.7050 209.1759 15.32110273  3948
KUIPER-00598            
1 69768U 26151F   26204.58334491  .00015955  00000+0  48419-3 0  9995
2 69768  51.8648 140.1601 0008665 191.4070  59.7713 15.34222784  3845
KUIPER-00604            
1 69769U 26151G   26204.10519738 -.00059555  00000+0 -15640-2 0  9998
2 69769  51.8797 142.0067 0002639 125.8861 234.2372 15.38119408  3238
KUIPER-00609            
1 69770U 26151H   26204.42428821  .00027115  00000+0  70317-3 0  9995
2 69770  51.8802 140.3956 0001112  69.8751 290.2356 15.38809442  3288
KUIPER-00611            
1 69771U 26151J   26204.55689496  .00028753  00000+0  74925-3 0  9995
2 69771  51.8815 139.7806 0001526 143.5876 216.5215 15.38628893  3303
KUIPER-00612            
1 69772U 26151K   26204.10913722  .00027369  00000+0  72610-3 0  9990
2 69772  51.8790 142.0331 0003693 144.3185 215.8050 15.38098923  3231
